STARLINK-34645          
1 64766U 25147M   25307.48045755  .00023599  00000+0  80629-3 0  9998
2 64766  53.1563 109.3267 0001093 102.3860 257.7263 15.30203783 19425
STARLINK-34639          
1 64767U 25147N   25308.48222566  .00029888  00000+0  10165-2 0  9991
2 64767  53.1547 104.2060 0001039  94.4906 265.6214 15.30220730 19532
STARLINK-34609          
1 64768U 25147P   25308.14992608  .00054542  00000+0  13635-2 0  9996
2 64768  53.1592 100.7191 0001345  78.8557 281.2599 15.39626474 19609
STARLINK-34246          
1 64769U 25147Q   25308.48433734  .00034987  00000+0  11872-2 0  9996
2 64769  53.1605 104.2212 0001047  87.2448 272.8672 15.30217574 19583
STARLINK-34618          
1 64770U 25147R   25308.48750187  .00011545  00000+0  40135-3 0  9992
2 64770  53.1572 104.2413 0000399 195.6081 164.4907 15.30195660 19518
STARLINK-34541          
1 64771U 25147S   25308.14088106  .00030303  00000+0  10316-2 0  9991
2 64771  53.1503 105.6326 0002142  68.3315 291.7914 15.30183474 19461
STARLINK-34652          
1 64772U 25147T   25308.13982679  .00023468  00000+0  80298-3 0  9990
2 64772  53.1508 105.6242 0000756  96.0095 264.0992 15.30159041 19536
STARLINK-34612          
1 64773U 25147U   25308.14510184  .00052307  00000+0  17654-2 0  9999
2 64773  53.1552 105.6591 0001015  92.5449 267.5668 15.30206931 19535
STARLINK-34621          
1 64774U 25147V   25307.73538484  .00017032  00000+0  58573-3 0  9999
2 64774  53.1574 108.0708 0000787  79.7759 280.3330 15.30206749 19393
STARLINK-34657          
1 64775U 25147W   25307.85651747  .00044621  00000+0  15090-2 0  9991
2 64775  53.1594 107.4053 0000754  84.3163 275.7924 15.30214247 19486
STARLINK-34637          
1 64776U 25147X   25307.71955746  .00028225  00000+0  96124-3 0  9993
2 64776  53.1576 107.9722 0001210  86.3446 273.7693 15.30207880 19395
STARLINK-34547          
1 64777U 25147Y   25308.16621439  .00032176  00000+0  10937-2 0  9990
2 64777  53.1552 105.7861 0002766  85.0960 275.0356 15.30199722 19479
STARLINK-34537          
1 64778U 25147Z   25308.10547331  .00041245  00000+0  10346-2 0  9994
2 64778  53.1580  88.0542 0001290  82.9339 277.1813 15.39646015 19817
STARLINK-34585          
1 64779U 25147AA  25308.48011480  .00035421  00000+0  12016-2 0  9992
2 64779  53.1572 104.1884 0001214  91.2912 268.8228 15.30220662 19537
STARLINK-34491          
1 64780U 25147AB  25308.14720618  .00018476  00000+0  63393-3 0  9993
2 64780  53.1554 105.6639 0000792 146.3980 213.7071 15.30223426 19536
STARLINK-34582          
1 64781U 25147AC  25307.88700778  .00026673  00000+0  90909-3 0  9990
2 64781  53.1583 106.8856 0001325  94.8050 265.3103 15.30213370 19425
