[{"OBJECT_NAME":"STARLINK-34645","OBJECT_ID":"2025-147M","EPOCH":"2025-11-03T11:31:51.532320","MEAN_MOTION":15.30203783,"ECCENTRICITY":0.00010933,"INCLINATION":53.1563,"RA_OF_ASC_NODE":109.3267,"ARG_OF_PERICENTER":102.386,"MEAN_ANOMALY":257.7263,"EPHEMERIS_TYPE":0,"CLASSIFICATION_TYPE":"U","NORAD_CAT_ID":64766,"ELEMENT_SET_NO":999,"REV_AT_EPOCH":1942,"BSTAR":0.00080628533,"MEAN_MOTION_DOT":0.00023599,"MEAN_MOTION_DDOT":0},{"OBJECT_NAME":"STARLINK-34639","OBJECT_ID":"2025-147N","EPOCH":"2025-11-04T11:34:24.297024","MEAN_MOTION":15.3022073,"ECCENTRICITY":0.0001039,"INCLINATION":53.1547,"RA_OF_ASC_NODE":104.206,"ARG_OF_PERICENTER":94.4906,"MEAN_ANOMALY":265.6214,"EPHEMERIS_TYPE":0,"CLASSIFICATION_TYPE":"U","NORAD_CAT_ID":64767,"ELEMENT_SET_NO":999,"REV_AT_EPOCH":1953,"BSTAR":0.0010165,"MEAN_MOTION_DOT":0.00029888,"MEAN_MOTION_DDOT":0},{"OBJECT_NAME":"STARLINK-34609","OBJECT_ID":"2025-147P","EPOCH":"2025-11-04T03:35:53.613312","MEAN_MOTION":15.39626474,"ECCENTRICITY":0.00013453,"INCLINATION":53.1592,"RA_OF_ASC_NODE":100.7191,"ARG_OF_PERICENTER":78.8557,"MEAN_ANOMALY":281.2599,"EPHEMERIS_TYPE":0,"CLASSIFICATION_TYPE":"U","NORAD_CAT_ID":64768,"ELEMENT_SET_NO":999,"REV_AT_EPOCH":1960,"BSTAR":0.0013635036,"MEAN_MOTION_DOT":0.00054542,"MEAN_MOTION_DDOT":0},{"OBJECT_NAME":"STARLINK-34246","OBJECT_ID":"2025-147Q","EPOCH":"2025-11-04T11:37:26.746176","MEAN_MOTION":15.30217574,"ECCENTRICITY":0.0001047,"INCLINATION":53.1605,"RA_OF_ASC_NODE":104.2212,"ARG_OF_PERICENTER":87.2448,"MEAN_ANOMALY":272.8672,"EPHEMERIS_TYPE":0,"CLASSIFICATION_TYPE":"U","NORAD_CAT_ID":64769,"ELEMENT_SET_NO":999,"REV_AT_EPOCH":1958,"BSTAR":0.0011872,"MEAN_MOTION_DOT":0.00034987,"MEAN_MOTION_DDOT":0},{"OBJECT_NAME":"STARLINK-34618","OBJECT_ID":"2025-147R","EPOCH":"2025-11-04T11:42:00.161568","MEAN_MOTION":15.3019566,"ECCENTRICITY":3.99e-5,"INCLINATION":53.1572,"RA_OF_ASC_NODE":104.2413,"ARG_OF_PERICENTER":195.6081,"MEAN_ANOMALY":164.4907,"EPHEMERIS_TYPE":0,"CLASSIFICATION_TYPE":"U","NORAD_CAT_ID":64770,"ELEMENT_SET_NO":999,"REV_AT_EPOCH":1951,"BSTAR":0.00040135,"MEAN_MOTION_DOT":0.00011545,"MEAN_MOTION_DDOT":0},{"OBJECT_NAME":"STARLINK-34541","OBJECT_ID":"2025-147S","EPOCH":"2025-11-04T03:22:52.123584","MEAN_MOTION":15.30183474,"ECCENTRICITY":0.00021429,"INCLINATION":53.1503,"RA_OF_ASC_NODE":105.6326,"ARG_OF_PERICENTER":68.3315,"MEAN_ANOMALY":291.7914,"EPHEMERIS_TYPE":0,"CLASSIFICATION_TYPE":"U","NORAD_CAT_ID":64771,"ELEMENT_SET_NO":999,"REV_AT_EPOCH":1946,"BSTAR":0.0010315912,"MEAN_MOTION_DOT":0.00030303,"MEAN_MOTION_DDOT":0},{"OBJECT_NAME":"STARLINK-34652","OBJECT_ID":"2025-147T","EPOCH":"2025-11-04T03:21:21.034656","MEAN_MOTION":15.30159041,"ECCENTRICITY":7.56e-5,"INCLINATION":53.1508,"RA_OF_ASC_NODE":105.6242,"ARG_OF_PERICENTER":96.0095,"MEAN_ANOMALY":264.0992,"EPHEMERIS_TYPE":0,"CLASSIFICATION_TYPE":"U","NORAD_CAT_ID":64772,"ELEMENT_SET_NO":999,"REV_AT_EPOCH":1953,"BSTAR":0.00080297954,"MEAN_MOTION_DOT":0.00023468,"MEAN_MOTION_DDOT":0},{"OBJECT_NAME":"STARLINK-34612","OBJECT_ID":"2025-147U","EPOCH":"2025-11-04T03:28:56.798976","MEAN_MOTION":15.30206931,"ECCENTRICITY":0.0001015,"INCLINATION":53.1552,"RA_OF_ASC_NODE":105.6591,"ARG_OF_PERICENTER":92.5449,"MEAN_ANOMALY":267.5668,"EPHEMERIS_TYPE":0,"CLASSIFICATION_TYPE":"U","NORAD_CAT_ID":64773,"ELEMENT_SET_NO":999,"REV_AT_EPOCH":1953,"BSTAR":0.001765401,"MEAN_MOTION_DOT":0.00052307,"MEAN_MOTION_DDOT":0},{"OBJECT_NAME":"STARLINK-34621","OBJECT_ID":"2025-147V","EPOCH":"2025-11-03T17:38:57.250176","MEAN_MOTION":15.30206749,"ECCENTRICITY":7.877e-5,"INCLINATION":53.1574,"RA_OF_ASC_NODE":108.0708,"ARG_OF_PERICENTER":79.7759,"MEAN_ANOMALY":280.333,"EPHEMERIS_TYPE":0,"CLASSIFICATION_TYPE":"U","NORAD_CAT_ID":64774,"ELEMENT_SET_NO":999,"REV_AT_EPOCH":1939,"BSTAR":0.00058573166,"MEAN_MOTION_DOT":0.00017032,"MEAN_MOTION_DDOT":0},{"OBJECT_NAME":"STARLINK-34657","OBJECT_ID":"2025-147W","EPOCH":"2025-11-03T20:33:23.109408","MEAN_MOTION":15.30214247,"ECCENTRICITY":7.54e-5,"INCLINATION":53.1594,"RA_OF_ASC_NODE":107.4053,"ARG_OF_PERICENTER":84.3163,"MEAN_ANOMALY":275.7924,"EPHEMERIS_TYPE":0,"CLASSIFICATION_TYPE":"U","NORAD_CAT_ID":64775,"ELEMENT_SET_NO":999,"REV_AT_EPOCH":1948,"BSTAR":0.001509,"MEAN_MOTION_DOT":0.00044621,"MEAN_MOTION_DDOT":0},{"OBJECT_NAME":"STARLINK-34637","OBJECT_ID":"2025-147X","EPOCH":"2025-11-03T17:16:09.764544","MEAN_MOTION":15.3020788,"ECCENTRICITY":0.00012105,"INCLINATION":53.1576,"RA_OF_ASC_NODE":107.9722,"ARG_OF_PERICENTER":86.3446,"MEAN_ANOMALY":273.7693,"EPHEMERIS_TYPE":0,"CLASSIFICATION_TYPE":"U","NORAD_CAT_ID":64776,"ELEMENT_SET_NO":999,"REV_AT_EPOCH":1939,"BSTAR":0.00096124208,"MEAN_MOTION_DOT":0.00028225,"MEAN_MOTION_DDOT":0},{"OBJECT_NAME":"STARLINK-34547","OBJECT_ID":"2025-147Y","EPOCH":"2025-11-04T03:59:20.923296","MEAN_MOTION":15.30199722,"ECCENTRICITY":0.00027664,"INCLINATION":53.1552,"RA_OF_ASC_NODE":105.7861,"ARG_OF_PERICENTER":85.096,"MEAN_ANOMALY":275.0356,"EPHEMERIS_TYPE":0,"CLASSIFICATION_TYPE":"U","NORAD_CAT_ID":64777,"ELEMENT_SET_NO":999,"REV_AT_EPOCH":1947,"BSTAR":0.0010937497,"MEAN_MOTION_DOT":0.00032176,"MEAN_MOTION_DDOT":0},{"OBJECT_NAME":"STARLINK-34537","OBJECT_ID":"2025-147Z","EPOCH":"2025-11-04T02:31:52.893984","MEAN_MOTION":15.39646015,"ECCENTRICITY":0.000129,"INCLINATION":53.158,"RA_OF_ASC_NODE":88.0542,"ARG_OF_PERICENTER":82.9339,"MEAN_ANOMALY":277.1813,"EPHEMERIS_TYPE":0,"CLASSIFICATION_TYPE":"U","NORAD_CAT_ID":64778,"ELEMENT_SET_NO":999,"REV_AT_EPOCH":1981,"BSTAR":0.0010346461,"MEAN_MOTION_DOT":0.00041245,"MEAN_MOTION_DDOT":0},{"OBJECT_NAME":"STARLINK-34585","OBJECT_ID":"2025-147AA","EPOCH":"2025-11-04T11:31:21.918720","MEAN_MOTION":15.30220662,"ECCENTRICITY":0.0001214,"INCLINATION":53.1572,"RA_OF_ASC_NODE":104.1884,"ARG_OF_PERICENTER":91.2912,"MEAN_ANOMALY":268.8228,"EPHEMERIS_TYPE":0,"CLASSIFICATION_TYPE":"U","NORAD_CAT_ID":64779,"ELEMENT_SET_NO":999,"REV_AT_EPOCH":1953,"BSTAR":0.0012016,"MEAN_MOTION_DOT":0.00035421,"MEAN_MOTION_DDOT":0},{"OBJECT_NAME":"STARLINK-34491","OBJECT_ID":"2025-147AB","EPOCH":"2025-11-04T03:31:58.613952","MEAN_MOTION":15.30223426,"ECCENTRICITY":7.928e-5,"INCLINATION":53.1554,"RA_OF_ASC_NODE":105.6639,"ARG_OF_PERICENTER":146.398,"MEAN_ANOMALY":213.7071,"EPHEMERIS_TYPE":0,"CLASSIFICATION_TYPE":"U","NORAD_CAT_ID":64780,"ELEMENT_SET_NO":999,"REV_AT_EPOCH":1953,"BSTAR":0.00063393087,"MEAN_MOTION_DOT":0.00018476,"MEAN_MOTION_DDOT":0},{"OBJECT_NAME":"STARLINK-34582","OBJECT_ID":"2025-147AC","EPOCH":"2025-11-03T21:17:17.472192","MEAN_MOTION":15.3021337,"ECCENTRICITY":0.0001325,"INCLINATION":53.1583,"RA_OF_ASC_NODE":106.8856,"ARG_OF_PERICENTER":94.805,"MEAN_ANOMALY":265.3103,"EPHEMERIS_TYPE":0,"CLASSIFICATION_TYPE":"U","NORAD_CAT_ID":64781,"ELEMENT_SET_NO":999,"REV_AT_EPOCH":1942,"BSTAR":0.00090909,"MEAN_MOTION_DOT":0.00026673,"MEAN_MOTION_DDOT":0}]
